[{"OBJECT_NAME":"JILIN-1 07","OBJECT_ID":"2018-008E","EPOCH":"2026-03-09T22:24:26.445888","MEAN_MOTION":15.32987507,"ECCENTRICITY":0.00101791,"INCLINATION":97.1876,"RA_OF_ASC_NODE":91.5817,"ARG_OF_PERICENTER":62.7832,"MEAN_ANOMALY":297.4447,"EPHEMERIS_TYPE":0,"CLASSIFICATION_TYPE":"U","NORAD_CAT_ID":43159,"ELEMENT_SET_NO":999,"REV_AT_EPOCH":44978,"BSTAR":0.00036439521,"MEAN_MOTION_DOT":0.00011559,"MEAN_MOTION_DDOT":0},{"OBJECT_NAME":"STARLINK-31468","OBJECT_ID":"2024-036A","EPOCH":"2026-03-09T09:42:47.605824","MEAN_MOTION":15.30192121,"ECCENTRICITY":0.00011871,"INCLINATION":53.1605,"RA_OF_ASC_NODE":79.1732,"ARG_OF_PERICENTER":91.3032,"MEAN_ANOMALY":268.8105,"EPHEMERIS_TYPE":0,"CLASSIFICATION_TYPE":"U","NORAD_CAT_ID":58998,"ELEMENT_SET_NO":999,"REV_AT_EPOCH":11529,"BSTAR":0.00010551493,"MEAN_MOTION_DOT":2.766e-5,"MEAN_MOTION_DDOT":0}]
